
ARIRANG-3 (KOMPSAT-3)
1 38338U 12025B   26170.29091910  .00000335  00000+0  75840-4 0  9990
2 38338  98.1171 127.7146 0006727 104.0746 256.1203 14.62207732751653

ARIRANG-5 (KOMPSAT-5)
1 39227U 13042A   26170.29439965  .00000256  00000+0  22631-4 0  9996
2 39227  97.6202 356.9649 0005422 115.4378 244.7410 15.04493852704177

CARTOSAT-2B
1 36795U 10035A   26170.30211193  .00000595  00000+0  88265-4 0  9996
2 36795  97.9946 220.8388 0011387 176.8373 183.2912 14.78663719860161

COSMO-SKYMED 4
1 37216U 10060A   26170.33405167  .00000362  00000+0  52059-4 0  9996
2 37216  97.8884 353.9017 0001401  85.9438 274.1935 14.82154459844882

DUBAISAT-1
1 35682U 09041B   26170.25968962  .00000579  00000+0  93241-4 0  9994
2 35682  98.0055 303.4947 0011599  67.8352 292.4087 14.75125238905407

DUBAISAT-2
1 39419U 13066D   26170.25733763  .00003408  00000+0  21215-3 0  9992
2 39419  97.4565 160.3479 0012023  34.0735 326.1264 15.10193630686704

EXACTVIEW-1 (ADS-1B)
1 38709U 12039C   26170.20684748  .00000089  00000+0  57724-4 0  9992
2 38709  98.9780 287.6426 0011271 160.7966 199.3639 14.24985078722999

GAOFEN-1
1 39150U 13018A   26170.29932255  .00000661  00000+0  10191-3 0  9991
2 39150  97.9092 242.3247 0015680 258.7271 101.2177 14.76539182708552

GOKTURK 2
1 39030U 12073A   26170.25080921  .00000465  00000+0  75176-4 0  9995
2 39030  97.6813   7.5781 0001513  55.9629 304.1724 14.75544710724816

GPM-CORE
1 39574U 14009C   26170.21658742  .00009771  00000+0  21352-3 0  9992
2 39574  64.9725 301.3300 0011756 252.2903 107.6954 15.44609240698129

HAIYANG-2A
1 37781U 11043A   26170.29519156 -.00000006  00000+0  39628-4 0  9997
2 37781  99.3391 172.9250 0005802  87.1604 273.0209 13.74332210746948

KAZEOSAT 1
1 39731U 14024A   26170.31138553  .00000113  00000+0  47356-4 0  9992
2 39731  98.3204 242.7061 0001318  77.0173 283.1165 14.42080830638868

LANDSAT 8
1 39084U 13008A   26170.22218367  .00000226  00000+0  60291-4 0  9994
2 39084  98.2302 240.3333 0001347  93.8436 266.2917 14.57095677698193

OCEANSAT-2
1 35931U 09051A   26170.27263487 -.00000173  00000+0 -92388-4 0  9997
2 35931  98.2323 156.9161 0015368 229.6861 130.2964 13.99663938879620

PLEIADES 1A
1 38012U 11076F   26170.31704249  .00000091  00000+0  29374-4 0  9993
2 38012  98.1976 245.3919 0001710  96.2271 305.4569 14.58571782772304

PLEIADES 1B
1 39019U 12068A   26170.34338909  .00000229  00000+0  59178-4 0  9990
2 39019  98.1946 245.3656 0001679  92.0168 268.1223 14.58561872721169

RASAT
1 37791U 11044D   26170.29298304  .00000151  00000+0  34704-4 0  9998
2 37791  98.0578 261.6577 0020386 181.9792 254.2101 14.68167138793498

RESOURCESAT-2
1 37387U 11015A   26170.27087342  .00000078  00000+0  55761-4 0  9997
2 37387  98.7643 237.6981 0010221 248.7793 111.2293 14.21600239786478

SARAL
1 39086U 13009A   26170.27549405  .00000053  00000+0  35331-4 0  9997
2 39086  98.5557 356.8162 0000641 294.1875  65.9242 14.32856349695907

SENTINEL-1A
1 39634U 14016A   26170.28749347  .00000392  00000+0  92934-4 0  9991
2 39634  98.1776 177.7900 0001415  81.2577 278.8783 14.59200442650327

SKYSAT-A
1 39418U 13066C   26170.10915703  .00001924  00000+0  11217-3 0  9993
2 39418  97.3810 219.4453 0019977 310.4094  49.5394 15.12983347688770

SMOS
1 36036U 09059A   26170.27439630  .00000171  00000+0  68489-4 0  9998
2 36036  98.4425 357.5787 0001324  88.1539 271.9801 14.39773508873753

SPOT 6
1 38755U 12047A   26170.25586542  .00000166  00000+0  45662-4 0  9994
2 38755  98.2116 237.5410 0001516  93.4692 266.6681 14.58564048733356

SRMSAT
1 37841U 11058D   26170.07684065  .00000355  00000+0  48973-4 0  9997
2 37841  19.9727  48.0289 0011753 224.4771 289.9104 14.11575921758082

TANDEM-X
1 36605U 10030A   26168.58693710  .00000287  00000+0  16858-4 0  9994
2 36605  97.4451 176.2891 0001888  87.7615 272.3836 15.19150445886700

VNREDSAT 1
1 39160U 13021B   26170.27484037  .00000437  00000+0  90212-4 0  9998
2 39160  97.9073 223.6113 0001712  88.9031 271.2369 14.64858964700590

WORLDVIEW-2 (WV-2)
1 35946U 09055A   26170.25137969  .00000090  00000+0  44130-4 0  9998
2 35946  98.4737 243.6725 0003837 201.1563 158.9466 14.37900000875941

YAOGAN-10
1 36834U 10038A   26170.31029292  .00001830  00000+0  21899-3 0  9993
2 36834  97.8970 193.6980 0001741  88.4441   2.2469 14.85356073857526

YAOGAN-7
1 36110U 09069A   26170.25516810  .00000361  00000+0  57149-4 0  9998
2 36110  98.0070  56.1095 0025453  35.3449 324.9443 14.78011718889934

ZIYUAN 1-02C (ZY 1-02C)
1 38038U 11079A   26170.30685346  .00000334  00000+0  12408-3 0  9998
2 38038  98.4069 237.5713 0005355 309.2997 138.5283 14.38216421759514
