OBJECT_NAME,OBJECT_ID,EPOCH,MEAN_MOTION,ECCENTRICITY,INCLINATION,RA_OF_ASC_NODE,ARG_OF_PERICENTER,MEAN_ANOMALY,EPHEMERIS_TYPE,CLASSIFICATION_TYPE,NORAD_CAT_ID,ELEMENT_SET_NO,REV_AT_EPOCH,BSTAR,MEAN_MOTION_DOT,MEAN_MOTION_DDOT
DUBAISAT-1,2009-041B,2026-06-19T06:13:57.183168,14.75125238,.00115995,98.0055,303.4947,67.8352,292.4087,0,U,35682,999,90540,.93241398E-4,.579E-5,0
OCEANSAT-2,2009-051A,2026-06-19T06:32:35.652768,13.99663938,.00153689,98.2323,156.9161,229.6861,130.2964,0,U,35931,999,87962,-.92388037E-4,-.173E-5,0
WORLDVIEW-2 (WV-2),2009-055A,2026-06-19T06:01:59.205216,14.37900000,.00038372,98.4737,243.6725,201.1563,158.9466,0,U,35946,999,87594,.44129947E-4,.9E-6,0
SMOS,2009-059A,2026-06-19T06:35:07.840320,14.39773508,.0001324,98.4425,357.5787,88.1539,271.9801,0,U,36036,999,87375,.68489471E-4,.171E-5,0
YAOGAN-7,2009-069A,2026-06-19T06:07:26.523840,14.78011718,.0025453,98.0070,56.1095,35.3449,324.9443,0,U,36110,999,88993,.57148845E-4,.361E-5,0
TANDEM-X,2010-030A,2026-06-17T14:05:11.365440,15.19150445,.00018883,97.4451,176.2891,87.7615,272.3836,0,U,36605,999,88670,.16858258E-4,.287E-5,0
CARTOSAT-2B,2010-035A,2026-06-19T07:15:02.470752,14.78663719,.00113878,97.9946,220.8388,176.8373,183.2912,0,U,36795,999,86016,.88264595E-4,.595E-5,0
YAOGAN-10,2010-038A,2026-06-19T07:26:49.308288,14.85356073,.00017418,97.8970,193.6980,88.4441,2.2469,0,U,36834,999,85752,.2189923E-3,.183E-4,0
COSMO-SKYMED 4,2010-060A,2026-06-19T08:01:02.064288,14.82154459,.0001401,97.8884,353.9017,85.9438,274.1935,0,U,37216,999,84488,.5205907E-4,.362E-5,0
RESOURCESAT-2,2011-015A,2026-06-19T06:30:03.463488,14.21600239,.0010221,98.7643,237.6981,248.7793,111.2293,0,U,37387,999,78647,.55761446E-4,.78E-6,0
HAIYANG-2A,2011-043A,2026-06-19T07:05:04.550784,13.74332210,.00058026,99.3391,172.9250,87.1604,273.0209,0,U,37781,999,74694,.39627683E-4,-.6E-7,0
RASAT,2011-044D,2026-06-19T07:01:53.734656,14.68167138,.00203866,98.0578,261.6577,181.9792,254.2101,0,U,37791,999,79349,.34704021E-4,.151E-5,0
SRMSAT,2011-058D,2026-06-19T01:50:39.032160,14.11575921,.00117536,19.9727,48.0289,224.4771,289.9104,0,U,37841,999,75808,.4897325E-4,.355E-5,0
PLEIADES 1A,2011-076F,2026-06-19T07:36:32.471136,14.58571782,.00017103,98.1976,245.3919,96.2271,305.4569,0,U,38012,999,77230,.29374114E-4,.91E-6,0
ZIYUAN 1-02C (ZY 1-02C),2011-079A,2026-06-19T07:21:52.138944,14.38216421,.00053558,98.4069,237.5713,309.2997,138.5283,0,U,38038,999,75951,.12407823E-3,.334E-5,0
ARIRANG-3 (KOMPSAT-3),2012-025B,2026-06-19T06:58:55.410240,14.62207732,.00067279,98.1171,127.7146,104.0746,256.1203,0,U,38338,999,75165,.7584028E-4,.335E-5,0
EXACTVIEW-1 (ADS-1B),2012-039C,2026-06-19T04:57:51.622272,14.24985078,.00112717,98.9780,287.6426,160.7966,199.3639,0,U,38709,999,72299,.57723552E-4,.89E-6,0
SPOT 6,2012-047A,2026-06-19T06:08:26.772288,14.58564048,.0001516,98.2116,237.5410,93.4692,266.6681,0,U,38755,999,73335,.45662166E-4,.166E-5,0
PLEIADES 1B,2012-068A,2026-06-19T08:14:28.817376,14.58561872,.00016795,98.1946,245.3656,92.0168,268.1223,0,U,39019,999,72116,.59178116E-4,.229E-5,0
GOKTURK 2,2012-073A,2026-06-19T06:01:09.915744,14.75544710,.00015131,97.6813,7.5781,55.9629,304.1724,0,U,39030,999,72481,.75176104E-4,.465E-5,0
LANDSAT 8,2013-008A,2026-06-19T05:19:56.669088,14.57095677,.00013474,98.2302,240.3333,93.8436,266.2917,0,U,39084,999,69819,.60290864E-4,.226E-5,0
SARAL,2013-009A,2026-06-19T06:36:42.685920,14.32856349,.00006416,98.5557,356.8162,294.1875,65.9242,0,U,39086,999,69590,.35331419E-4,.53E-6,0
GAOFEN-1,2013-018A,2026-06-19T07:11:01.468320,14.76539182,.00156801,97.9092,242.3247,258.7271,101.2177,0,U,39150,999,70855,.10191464E-3,.661E-5,0
VNREDSAT 1,2013-021B,2026-06-19T06:35:46.207968,14.64858964,.00017129,97.9073,223.6113,88.9031,271.2369,0,U,39160,999,70059,.90211991E-4,.437E-5,0
ARIRANG-5 (KOMPSAT-5),2013-042A,2026-06-19T07:03:56.129760,15.04493852,.00054227,97.6202,356.9649,115.4378,244.7410,0,U,39227,999,70417,.22630691E-4,.256E-5,0
SKYSAT-A,2013-066C,2026-06-19T02:37:11.167392,15.12983347,.00199771,97.3810,219.4453,310.4094,49.5394,0,U,39418,999,68877,.11216999E-3,.1924E-4,0
DUBAISAT-2,2013-066D,2026-06-19T06:10:33.971232,15.10193630,.00120232,97.4565,160.3479,34.0735,326.1264,0,U,39419,999,68670,.21215065E-3,.3408E-4,0
GPM-CORE,2014-009C,2026-06-19T05:11:53.153088,15.44609240,.00117564,64.9725,301.3300,252.2903,107.6954,0,U,39574,999,69812,.21351579E-3,.9771E-4,0
SENTINEL-1A,2014-016A,2026-06-19T06:53:59.435808,14.59200442,.00014155,98.1776,177.7900,81.2577,278.8783,0,U,39634,999,65032,.9293425E-4,.392E-5,0
KAZEOSAT 1,2014-024A,2026-06-19T07:28:23.709792,14.42080830,.00013188,98.3204,242.7061,77.0173,283.1165,0,U,39731,999,63886,.47356134E-4,.113E-5,0
